#dP2023  7  3 12  0  0.00000000      96 __u+U ITR00 EXT  IAC
## 2269 129600.00000000   900.00000000 60128 0.5000000000000
+  118   C06C07C08C09C10C11C12C13C14C16C19C20C21C22C23C24C25
+        C26C27C28C29C30C32C33C34C35C36C37C38C39C40C41C42C43
+        C44C45C46E02E03E04E05E07E08E09E10E11E12E13E14E15E18
+        E19E21E24E25E26E27E30E31E33E34E36G01G02G03G04G05G06
+        G07G08G09G10G11G12G13G14G15G16G17G18G19G20G21G22G23
+        G24G25G26G27G28G29G30G31G32J02J04R01R02R03R04R05R07
+        R08R09R11R12R13R14R15R16R17R18R19R20R21R22R24R25  0
++         0  0  0  0  0  0  0  0  0  0  0  0  0  0  0  0  0
++         0  0  0  0  0  0  0  0  0  0  0  0  0  0  0  0  0
++         0  0  0  0  0  0  0  0  0  0  0  0  0  0  0  0  0
++         0  0  0  0  0  0  0  0  0  0  0  0  0  0  0  0  0
++         0  0  0  0  0  0  0  0  0  0  0  0  0  0  0  0  0
++         0  0  0  0  0  0  0  0  0  0  0  0  0  0  0  0  0
++         0  0  0  0  0  0  0  0  0  0  0  0  0  0  0  0  0
%c M  cc GPS ccc cccc cccc cccc cccc ccccc ccccc ccccc ccccc
%c cc cc ccc ccc cccc cccc cccc cccc ccccc ccccc ccccc ccccc
%f  0.0000000  0.000000000  0.00000000000  0.000000000000000
%f  0.0000000  0.000000000  0.00000000000  0.000000000000000
%i    0    0    0    0      0      0      0      0         0
%i    0    0    0    0      0      0      0      0         0
/* IAC                                ULTRA-RAPID PREDICTION
/* S/V CLOCKS ARE ALIGNED TO GNSS TIME                      
/* G:C1WC2W R:C1PC2P E:C1XC5X C:C2IC6I J:C1CC2S             
/* PCV:IGS20_2247 OL/AL:FES2004  NONE     YN ORB:CoN CLK:CoN
*  2023 07 04  5  0  0.00000000
PC06 -15151.285284  23803.096009 -31374.565479   -166.364511
PC07 -11224.130271  40473.655340   2301.886869   -269.424928
PC08   2837.864255  30849.905130  28673.395985    439.816153
PC09  -4190.123782  24292.606153 -33817.398382    458.391186
PC10  -6277.801495  40732.553756   7663.891492   -104.263835
PC11 -26754.823810   2568.689712  -7399.023001    707.779042
PC12 -15446.584318  -9904.935054 -20990.244249    760.916642
PC13   8037.908128  34007.157928  23921.074823    308.797435
PC14 -16208.744293   1905.827589  22642.035488    509.161076
PC16 -15618.871923  23233.107806 -31384.576316     19.427547
PC19  15927.782334 -12749.349891 -19029.770092   -933.442217
PC20  14346.149499   7093.508496 -22847.966576    460.132731
PC21  -3880.302985 -24350.522315  13109.359101   -930.408569
PC22   8476.920130 -26294.747229  -4059.108796   -411.969332
PC23  -5101.323738  16631.352817 -21808.430218   -958.158029
PC24 -22804.054430 -14976.170310  -5820.583741    134.083129
PC25 -19239.936161   2481.013228 -20059.098583    160.642954
PC26 -13829.794791 -21856.125092  10423.918636   -143.798381
PC27   6984.289195  14455.101533  22801.098508    164.502318
PC28 -12187.871103  17160.848345  18319.011353    122.467932
PC29  25838.544678 -10414.050442  -1670.216961    142.590186
PC30  22944.914695   3361.435512  15499.895901     -1.841840
PC32   4012.604114  24343.678695 -13009.887023   -542.269004
PC33 -15897.345849  12679.320998  19103.740737   -906.533856
PC34 -23736.120174  -2425.513325 -14503.818618    207.133240
PC35  11988.327638 -17625.806227 -18008.379719    595.491156
PC36  19731.012118  -1315.740681  19720.357214   -348.187912
PC37  12517.871643  22245.834456 -11283.756182   -789.868726
PC38  -4810.340813  27299.103231  31835.182019     89.304442
PC39 -21868.727800  22946.760402 -27865.779175     -3.639067
PC40 -18318.614695  37807.044255   -388.189055    -28.264715
PC41  -8818.498639  26039.373093   4799.317037   -908.904856
PC42 -13926.738354  -8714.403890  22603.511564   -625.082139
PC43 -26114.454384   9832.136660    804.880126     29.114163
PC44  -7398.223379 -14407.809364 -22743.730630    157.880222
PC45   4576.699908 -16849.268365  21771.037359   -118.230072
PC46  23046.071270  14046.935922   7170.675658    -66.269462
PE02  15715.718008  -5914.408110  24376.847794     47.745974
PE03  23833.611033 -14276.661491 -10234.593067    -32.613728
PE04 -15383.048733  23970.949875  -8039.476699   -158.938056
PE05  18444.163804   3954.489905 -22805.879026     -3.647404
PE07  -2010.711044 -19914.959539  21819.957480    -57.394863
PE08  15642.197636 -23915.354862   7751.464589   -108.972282
PE09   1806.073660  19892.864930 -21833.101599    -72.424709
PE10   1584.572587  16591.947774  24446.921257   -545.929576
PE11  13330.484795  16898.350884  20296.550782   2395.091931
PE12  -9456.573610  13887.559763  24359.523573   -604.657605
PE13 -12602.532255 -16911.134249 -20776.347120    -19.313107
PE14  11770.126103  10859.019370  18979.064277    272.271285
PE15   9794.951007 -13696.759765 -24346.273740    -34.375621
PE18  -6516.343884 -20090.095831 -23361.902786    255.670611
PE19 -23941.751486  12110.755916  12510.948696  -2155.124080
PE21 -17506.027745 -14779.018157 -18740.822625   -538.690503
PE24   8736.237633  28261.431809   1292.891102   -190.234192
PE25  17451.989460  15114.053987  18533.551944   -607.764313
PE26 -27574.931451  -9841.046156  -4347.746679    152.784401
PE27  -9252.504770 -28045.973809  -1953.244641    -90.519686
PE30   4816.377519 -24339.287857  16130.840852   -307.219845
PE31  -4343.467134  24656.281219 -15780.242726      0.351904
PE33 -26228.135202   2416.467358  13507.364409   -442.383531
PE34  26150.979174  -2577.382195 -13648.794821    -54.216341
PE36  27322.261429  10178.720007   5083.418909    -80.750987
PG01 -19087.261987 -14322.454834 -12364.176631    174.701071
PG02 -14682.727039 -14431.806069 -16358.232811   -579.643895
PG03 -12665.974262 -20645.492892  10896.767161   -246.569115
PG04 -11736.039044  -9778.374301  21745.503606     85.907505
PG05   4623.277572  25712.946625   4261.912738   -133.549351
PG06 -17931.366517   7242.212316  18307.901073    580.890568
PG07 -25997.183971  -6265.661631  -1653.742372    134.946308
PG08  -1496.402980 -17987.622279 -19424.209413   -130.450566
PG09 -18693.346179     40.648030  18809.234595   -120.672206
PG10  12606.774276  -8836.737536 -21420.529338    -43.770934
PG11  -2557.903091  15037.732742  21751.490180   -261.383699
PG12   9689.390464  23383.829387   7899.707881   -396.435794
PG13  -7894.684630  19529.036231 -16229.552759    542.532890
PG14 -14597.979693   5413.720547 -21491.507081    111.188348
PG15   4588.696997  17762.560010 -19589.648114     54.767612
PG16   1239.558144 -25133.502768   7433.835803   -484.710670
PG17 -22024.068504  13539.951554  -5906.979048    720.160150
PG18  25790.249102   4142.225208  -5278.199657   -332.321694
PG19 -20496.888984  16588.276295    688.857161    339.177638
PG20   -839.299054  22761.068244  13849.870076    424.565144
PG21 -12414.632563 -15089.660133 -17835.028563    152.523071
PG22  18058.204155 -18909.814123   4599.614376    507.610853
PG23  15956.975159   4891.405539 -20695.551943     39.557844
PG24  15991.953282  14915.699723 -15717.476058   -246.357529
PG25  15752.089558  13099.578834  16732.836076    453.926740
PG26   7358.051095 -18579.477910  17210.920243    237.465052
PG27   9616.173633 -21333.838133 -12412.491434      3.929682
PG28  19357.820550  -7193.283146  16680.394592     83.420472
PG29  17528.889318   2793.036185  19737.869281   -604.635760
PG30 -24154.506292   1451.718059 -11128.042658   -506.751662
PG31   9087.940082 -12935.594253  21216.354749   -219.409494
PG32  20587.894048 -15972.927617  -4384.841677   -513.927525
PJ02 -20762.780841  26053.018177 -21169.011344     -1.046795
PJ04 -28790.209883  28754.688658  16930.816752     96.263955
PR01    787.436590 -21085.788453  14347.033243     60.696507
PR02  -9148.906051  -6053.285086  23070.415782    -22.636611
PR03 -14006.515903  11872.443235  17780.753678     80.892406
PR04 -11127.913869  22781.582199   2883.307000    193.700020
PR05  -2303.718944  21452.665588 -13612.786248    115.219105
PR07  13998.901446 -12577.179196 -17154.000998     59.394586
PR08  10857.805823 -22918.925290  -2535.084997    -71.520146
PR09  18232.325993  15202.107253   9247.378674    129.272003
PR11   2874.752978 -13031.402964  21756.453532    -95.543505
PR12 -11270.644588 -21224.694858   8566.547262     28.733131
PR13 -17805.380090 -16708.193596  -7392.676677    -36.719182
PR14 -14026.648857  -1133.368840 -21263.279700     24.889353
PR15  -2077.458994  13986.450182 -21203.709243     88.107571
PR16  11298.605499  21069.250856  -8827.234860     16.292211
PR17 -24769.647017   4764.924780   3646.081304     -3.289345
PR18 -15012.668626   9924.052962  18106.953618     89.819343
PR19    709.547435  10340.633027  23299.512437   -238.571694
PR20  20622.190167   4631.094403  14253.964972    -95.928449
PR21  24503.538531  -5140.223775  -4967.486075    -20.077966
PR22  14393.726771  -9939.799656 -18539.549980     89.231744
PR24 -21210.544478  -3895.722153 -13599.263818    -14.951393
PR25  25011.970222  -3644.834897  -3521.108967     57.270878
EOF
